STARLINK-32930          
1 63203U 25048W   26046.81507276  .00029104  00000+0  10626-2 0  9999
2 63203  42.9977 209.1128 0001776 275.4853  84.5795 15.27592026 53748
STARLINK-11654 [DTC]    
1 63265U 25053A   26046.58661734  .00456210  00000+0  33348-2 0  9995
2 63265  42.9993 245.4238 0002566 251.4131 108.6458 15.71072408 54190
STARLINK-11659 [DTC]    
1 63266U 25053B   26046.89922392  .00327533  00000+0  24467-2 0  9997
2 63266  42.9991 243.4639 0002527 293.3906  66.6696 15.70937923 54248
STARLINK-11653 [DTC]    
1 63267U 25053C   26046.92136884  .00201976  00000+0  15347-2 0  9994
2 63267  42.9981 243.6412 0001621 266.3579  93.7103 15.70916085 54249
STARLINK-11641 [DTC]    
1 63268U 25053D   26046.56538110  .00423178  00000+0  31051-2 0  9993
2 63268  42.9977 245.2506 0002769 242.5995 117.4591 15.71079442 54196
STARLINK-11638 [DTC]    
1 63269U 25053E   26046.57069358  .00226760  00000+0  17131-2 0  9999
2 63269  42.9981 245.2975 0001254 266.8257  93.2467 15.70976315 54197
STARLINK-11614 [DTC]    
1 63270U 25053F   26046.92045812  .00283992  00000+0  21323-2 0  9997
2 63270  42.9996 243.6376 0002086 265.2254  94.8376 15.70947755 54244
STARLINK-11620 [DTC]    
1 63271U 25053G   26046.93638660  .00293699  00000+0  21906-2 0  9990
2 63271  43.0003 243.7640 0002944 270.1056  89.9474 15.71075547 54245
STARLINK-11619 [DTC]    
1 63272U 25053H   26046.90983829  .00155093  00000+0  11864-2 0  9995
2 63272  42.9991 243.5510 0001970 272.5330  87.5312 15.70906280 54244
STARLINK-11621 [DTC]    
1 63273U 25053J   26046.56007076  .00267642  00000+0  20089-2 0  9992
2 63273  43.0020 245.2145 0001769 255.3584 104.7087 15.71005257 54199
STARLINK-11615 [DTC]    
1 63274U 25053K   26046.59723964  .00300737  00000+0  22589-2 0  9997
2 63274  42.9995 245.5122 0003604 285.0849  74.9620 15.70885494 54190
STARLINK-11608 [DTC]    
1 63275U 25053L   26046.89391440  .00231976  00000+0  17561-2 0  9993
2 63275  42.9990 243.4241 0001950 281.9237  78.1412 15.70910308 54236
STARLINK-11623 [DTC]    
1 63276U 25053M   26046.93107717  .00220125  00000+0  16684-2 0  9990
2 63276  42.9993 243.7229 0001430 272.8982  87.1722 15.70918958 54231
STARLINK-33660          
1 63278U 25053P   26046.93662397  .00038003  00000+0  13819-2 0  9991
2 63278  43.0031   4.8869 0001347 257.5139 102.5562 15.27615928 52869
STARLINK-33611          
1 63279U 25053Q   26046.90369764  .00036384  00000+0  13238-2 0  9996
2 63279  43.0027   1.1707 0001069 276.4613  83.6117 15.27613884 53016
STARLINK-33646          
1 63280U 25053R   26046.90064558  .00011591  00000+0  43009-3 0  9994
2 63280  42.9999   4.6115 0001271 274.8255  85.2452 15.27578279 52864
STARLINK-33665          
1 63281U 25053S   26046.29032282  .00028221  00000+0  10303-2 0  9994
2 63281  43.0026   7.7600 0001422 262.0449  98.0242 15.27606928 52775
STARLINK-33603          
1 63282U 25053T   26046.94047393  .00033979  00000+0  12366-2 0  9993
2 63282  43.0042   4.8927 0001505 262.3061  97.7620 15.27632863 52862
STARLINK-33669          
1 63283U 25053U   26046.88651004  .00037935  00000+0  13792-2 0  9997
2 63283  43.0011   4.4952 0001010 267.5054  92.5682 15.27621757 52864
STARLINK-33673          
1 63284U 25053V   26046.91817027  .00033006  00000+0  12028-2 0  9997
2 63284  43.0038 356.9388 0001307 259.1270 100.9435 15.27602857 53061
STARLINK-33662          
1 63285U 25053W   26046.31988112  .00039125  00000+0  14232-2 0  9993
2 63285  43.0047   7.9888 0001936 268.2133  91.8497 15.27591627 52772
STARLINK-33613          
1 63286U 25053X   26046.93020162  .00025863  00000+0  94500-3 0  9995
2 63286  43.0010   4.8402 0000726 310.7996  49.2792 15.27617224 52864
STARLINK-33680          
1 63287U 25053Y   26046.89293240  .00027583  00000+0  10073-2 0  9993
2 63287  42.9993   4.5488 0001095 247.0644 113.0092 15.27604968 52916
STARLINK-11568 [DTC]    
1 63307U 25057A   26046.32348276  .00146622  00000+0  11241-2 0  9992
2 63307  42.9996  39.0235 0001386 267.0648  93.0061 15.70882663 53668
STARLINK-11575 [DTC]    
1 63308U 25057B   26046.28644741  .00222515  00000+0  16868-2 0  9990
2 63308  42.9998  39.6185 0001513 262.9771  97.0924 15.70907558 53656
STARLINK-11585 [DTC]    
1 63309U 25057C   26046.33410344  .00307251  00000+0  23033-2 0  9990
2 63309  42.9995  39.1062 0001601 298.9364  61.1343 15.70914772 53695
STARLINK-11587 [DTC]    
1 63310U 25057D   26046.94350375  .00160967  00000+0  12254-2 0  9990
2 63310  43.0004  35.9548 0001921 299.0969  60.9706 15.71002921 53753
STARLINK-11589 [DTC]    
1 63311U 25057E   26046.31299559  .00385429  00000+0  28625-2 0  9999
2 63311  42.9994  39.8299 0001526 271.8120  88.2573 15.70903443 53656
STARLINK-11650 [DTC]    
1 63312U 25057F   26046.36156552  .00271999  00000+0  20365-2 0  9999
2 63312  42.9993  39.3246 0001182 308.7766  51.2996 15.71051433 53694
STARLINK-11648 [DTC]    
1 63313U 25057G   26046.23348397  .00243745  00000+0  18462-2 0  9999
2 63313  42.9996  40.0847 0001811 295.3590  64.7090 15.70861916 53642
STARLINK-11640 [DTC]    
1 63314U 25057H   26046.03742321  .00230535  00000+0  17415-2 0  9993
2 63314  42.9996  41.1909 0001952 235.5356 124.5327 15.70965217 53610
STARLINK-11652 [DTC]    
1 63315U 25057J   26046.34472181  .00161033  00000+0  12321-2 0  9999
2 63315  43.0000  39.1914 0001502 291.5940  68.4768 15.70881652 53697
STARLINK-11645 [DTC]    
1 63316U 25057K   26046.36595835  .00291317  00000+0  21879-2 0  9991
2 63316  43.0002  39.3604 0001775 287.1080  72.9594 15.70919355 53695
STARLINK-11633 [DTC]    
1 63317U 25057L   26046.95398992  .00392105  00000+0  28880-2 0  9998
2 63317  42.9998  35.1424 0001652 222.0940 137.9801 15.71081631 53768
STARLINK-11593 [DTC]    
1 63318U 25057M   26046.96460665  .00299741  00000+0  22359-2 0  9994
2 63318  43.0000  35.2262 0001838 217.7603 142.3136 15.71055908 53791
STARLINK-11588 [DTC]    
1 63319U 25057N   26046.97522570  .00232270  00000+0  17454-2 0  9994
2 63319  42.9996  35.3119 0006743 137.1792 222.9602 15.71065364 53767
STARLINK-33671          
1 63320U 25057P   26046.67580402  .00024658  00000+0  90145-3 0  9999
2 63320  43.0033 144.5386 0002287 277.2080  82.8511 15.27620584 52535
STARLINK-33650          
1 63321U 25057Q   26046.35128115  .00031855  00000+0  11613-2 0  9993
2 63321  42.9974 156.7821 0001045 198.4952 161.5862 15.27602600 52320
STARLINK-33689          
1 63322U 25057R   26046.67050207  .00024459  00000+0  89487-3 0  9992
2 63322  42.9996 154.8809 0001632 273.2438  86.8227 15.27599591 52411
STARLINK-33607          
1 63323U 25057S   26046.36541440  .00028746  00000+0  10494-2 0  9997
2 63323  43.0004 156.8903 0001288 242.2037 117.8684 15.27599251 52324
STARLINK-33619          
1 63324U 25057T   26046.33458093  .00030995  00000+0  11307-2 0  9999
2 63324  42.9990 156.6491 0000869 164.3101 195.7778 15.27592447 52360
STARLINK-33612          
1 63325U 25057U   26046.65137387  .00028752  00000+0  10497-2 0  9992
2 63325  42.9969 155.5899 0001751 260.4610  99.6044 15.27598028 52405
STARLINK-33672          
1 63326U 25057V   26046.67692326  .00012806  00000+0  47390-3 0  9990
2 63326  43.0015 154.9133 0000976 262.4693  97.6048 15.27592315 52411
STARLINK-33625          
1 63327U 25057W   26046.31627019  .00029194  00000+0  10653-2 0  9998
2 63327  42.9965 149.5938 0003614 293.7271  66.3201 15.27603908 52446
STARLINK-33699          
1 63328U 25057X   26046.63163178  .00028634  00000+0  10453-2 0  9991
2 63328  42.9978 147.6523 0001910 269.6325  90.4307 15.27601904 52459
STARLINK-33674          
1 63329U 25057Y   26046.70005120  .00026617  00000+0  97240-3 0  9991
2 63329  43.0037 155.1017 0002242 280.9125  79.1474 15.27609229 52416
STARLINK-32840          
1 63363U 25063A   26046.76905215  .00029166  00000+0  99201-3 0  9997
2 63363  53.1581 151.4349 0001084  79.8725 280.2398 15.30232419 51428
STARLINK-32543          
1 63364U 25063B   26046.70268496  .00018180  00000+0  62413-3 0  9994
2 63364  53.1586 151.7264 0001231  92.5806 267.5335 15.30216485 51423
STARLINK-33741          
1 63365U 25063C   26046.59485708  .00018249  00000+0  62651-3 0  9999
2 63365  53.1575 155.3064 0001107  81.2599 278.8527 15.30212882 51375
STARLINK-33742          
1 63366U 25063D   26046.69277221  .00029401  00000+0  10002-2 0  9994
2 63366  53.1605 154.4946 0001226  75.4786 284.6351 15.30221968 51346
STARLINK-33734          
1 63367U 25063E   26046.71062146  .00026142  00000+0  89094-3 0  9993
2 63367  53.1601 164.5267 0001201  76.1118 284.0016 15.30225869 51202
STARLINK-33578          
1 63368U 25063F   26046.79965357  .00025575  00000+0  87192-3 0  9994
2 63368  53.1594 151.6111 0000916  69.9736 290.1363 15.30226729 51385
STARLINK-33626          
1 63369U 25063G   26046.81231213  .00039610  00000+0  13390-2 0  9998
2 63369  53.1595 151.6850 0001339  78.6970 281.4182 15.30280553 51392
STARLINK-33657          
1 63370U 25063H   26046.64751246  .00016997  00000+0  58458-3 0  9992
2 63370  53.1595 154.9203 0001572  71.7930 288.3242 15.30205532 51332
STARLINK-33648          
1 63371U 25063J   26046.78763203  .00034205  00000+0  11605-2 0  9998
2 63371  53.1577 154.3765 0001014  87.4919 272.6198 15.30233864 51405
STARLINK-33614          
1 63372U 25063K   26046.60160794  .00020688  00000+0  70844-3 0  9997
2 63372  53.1592 152.5085 0001748  67.8248 292.2938 15.30210522 51416
STARLINK-33617          
1 63373U 25063L   26046.66269313  .00024560  00000+0  83802-3 0  9992
2 63373  53.1584 152.1718 0001120  97.2151 262.8977 15.30222837 51374
STARLINK-33618          
1 63374U 25063M   26046.52890185  .00026174  00000+0  89230-3 0  9999
2 63374  53.1576 152.7613 0001055  85.9762 274.1359 15.30215464 51407
STARLINK-33621          
1 63375U 25063N   26046.52784320  .00026741  00000+0  91121-3 0  9995
2 63375  53.1579 152.7522 0001254 133.4444 226.6661 15.30218438 51353
